[{"OBJECT_NAME":"CONNECTA IOT-16","OBJECT_ID":"2026-004AD","EPOCH":"2026-03-09T22:28:21.027072","MEAN_MOTION":15.16909547,"ECCENTRICITY":0.00029488,"INCLINATION":97.4598,"RA_OF_ASC_NODE":69.3831,"ARG_OF_PERICENTER":354.609,"MEAN_ANOMALY":5.5111,"EPHEMERIS_TYPE":0,"CLASSIFICATION_TYPE":"U","NORAD_CAT_ID":67390,"ELEMENT_SET_NO":999,"REV_AT_EPOCH":869,"BSTAR":0.00024828447,"MEAN_MOTION_DOT":4.827e-5,"MEAN_MOTION_DDOT":0},{"OBJECT_NAME":"FALCON 9 DEB","OBJECT_ID":"2021-041BK","EPOCH":"2026-03-09T13:04:15.781440","MEAN_MOTION":15.14721468,"ECCENTRICITY":0.00108412,"INCLINATION":53.0211,"RA_OF_ASC_NODE":167.2269,"ARG_OF_PERICENTER":177.7272,"MEAN_ANOMALY":182.3771,"EPHEMERIS_TYPE":0,"CLASSIFICATION_TYPE":"U","NORAD_CAT_ID":48610,"ELEMENT_SET_NO":999,"REV_AT_EPOCH":26460,"BSTAR":0.00039810006,"MEAN_MOTION_DOT":7.171e-5,"MEAN_MOTION_DDOT":0}]
